[{"OBJECT_NAME":"ONEWEB-0537","OBJECT_ID":"2023-043A","EPOCH":"2025-08-24T13:52:59.993760","MEAN_MOTION":13.16594244,"ECCENTRICITY":0.00019604,"INCLINATION":87.902,"RA_OF_ASC_NODE":287.885,"ARG_OF_PERICENTER":102.2452,"MEAN_ANOMALY":257.8898,"EPHEMERIS_TYPE":0,"CLASSIFICATION_TYPE":"U","NORAD_CAT_ID":56046,"ELEMENT_SET_NO":999,"REV_AT_EPOCH":11993,"BSTAR":0.00019361753,"MEAN_MOTION_DOT":8.7e-7,"MEAN_MOTION_DDOT":0},{"OBJECT_NAME":"ONEWEB-0538","OBJECT_ID":"2023-043B","EPOCH":"2025-08-24T13:43:52.029408","MEAN_MOTION":13.16593842,"ECCENTRICITY":0.00016861,"INCLINATION":87.901,"RA_OF_ASC_NODE":287.9001,"ARG_OF_PERICENTER":98.0249,"MEAN_ANOMALY":262.1073,"EPHEMERIS_TYPE":0,"CLASSIFICATION_TYPE":"U","NORAD_CAT_ID":56047,"ELEMENT_SET_NO":999,"REV_AT_EPOCH":11994,"BSTAR":-0.00012235233,"MEAN_MOTION_DOT":-3.4e-7,"MEAN_MOTION_DDOT":0},{"OBJECT_NAME":"ONEWEB-0546","OBJECT_ID":"2023-043C","EPOCH":"2025-08-24T13:25:37.385472","MEAN_MOTION":13.16593936,"ECCENTRICITY":0.00022067,"INCLINATION":87.9022,"RA_OF_ASC_NODE":287.8826,"ARG_OF_PERICENTER":114.252,"MEAN_ANOMALY":245.8842,"EPHEMERIS_TYPE":0,"CLASSIFICATION_TYPE":"U","NORAD_CAT_ID":56048,"ELEMENT_SET_NO":999,"REV_AT_EPOCH":11993,"BSTAR":-0.00048431488,"MEAN_MOTION_DOT":-1.72e-6,"MEAN_MOTION_DDOT":0},{"OBJECT_NAME":"ONEWEB-0547","OBJECT_ID":"2023-043D","EPOCH":"2025-08-24T14:17:08.600352","MEAN_MOTION":13.2183605,"ECCENTRICITY":0.00017806,"INCLINATION":87.9242,"RA_OF_ASC_NODE":303.1574,"ARG_OF_PERICENTER":95.1727,"MEAN_ANOMALY":264.9611,"EPHEMERIS_TYPE":0,"CLASSIFICATION_TYPE":"U","NORAD_CAT_ID":56049,"ELEMENT_SET_NO":999,"REV_AT_EPOCH":11904,"BSTAR":0.0029821588,"MEAN_MOTION_DOT":1.245e-5,"MEAN_MOTION_DDOT":0},{"OBJECT_NAME":"ONEWEB-0548","OBJECT_ID":"2023-043E","EPOCH":"2025-08-24T14:02:07.670400","MEAN_MOTION":13.16592016,"ECCENTRICITY":0.00024406,"INCLINATION":87.9005,"RA_OF_ASC_NODE":287.9041,"ARG_OF_PERICENTER":90.4759,"MEAN_ANOMALY":269.6652,"EPHEMERIS_TYPE":0,"CLASSIFICATION_TYPE":"U","NORAD_CAT_ID":56050,"ELEMENT_SET_NO":999,"REV_AT_EPOCH":11993,"BSTAR":4.2115356e-5,"MEAN_MOTION_DOT":2.9e-7,"MEAN_MOTION_DDOT":0},{"OBJECT_NAME":"ONEWEB-0549","OBJECT_ID":"2023-043F","EPOCH":"2025-08-24T14:04:40.229472","MEAN_MOTION":13.21825272,"ECCENTRICITY":0.00017005,"INCLINATION":87.9245,"RA_OF_ASC_NODE":303.174,"ARG_OF_PERICENTER":94.189,"MEAN_ANOMALY":265.9438,"EPHEMERIS_TYPE":0,"CLASSIFICATION_TYPE":"U","NORAD_CAT_ID":56051,"ELEMENT_SET_NO":999,"REV_AT_EPOCH":11904,"BSTAR":2.2602691e-5,"MEAN_MOTION_DOT":2.2e-7,"MEAN_MOTION_DDOT":0},{"OBJECT_NAME":"ONEWEB-0550","OBJECT_ID":"2023-043G","EPOCH":"2025-08-24T13:46:29.474400","MEAN_MOTION":13.21827309,"ECCENTRICITY":0.00021519,"INCLINATION":87.9249,"RA_OF_ASC_NODE":303.1705,"ARG_OF_PERICENTER":98.176,"MEAN_ANOMALY":261.9618,"EPHEMERIS_TYPE":0,"CLASSIFICATION_TYPE":"U","NORAD_CAT_ID":56052,"ELEMENT_SET_NO":999,"REV_AT_EPOCH":11904,"BSTAR":-4.4291925e-5,"MEAN_MOTION_DOT":-5.0e-8,"MEAN_MOTION_DDOT":0},{"OBJECT_NAME":"ONEWEB-0551","OBJECT_ID":"2023-043H","EPOCH":"2025-08-24T14:35:06.868896","MEAN_MOTION":13.15548639,"ECCENTRICITY":0.00017512,"INCLINATION":87.907,"RA_OF_ASC_NODE":318.4023,"ARG_OF_PERICENTER":93.9204,"MEAN_ANOMALY":266.2126,"EPHEMERIS_TYPE":0,"CLASSIFICATION_TYPE":"U","NORAD_CAT_ID":56053,"ELEMENT_SET_NO":999,"REV_AT_EPOCH":11740,"BSTAR":0.00031662385,"MEAN_MOTION_DOT":1.32e-6,"MEAN_MOTION_DDOT":0},{"OBJECT_NAME":"ONEWEB-0552","OBJECT_ID":"2023-043J","EPOCH":"2025-08-24T13:37:25.291776","MEAN_MOTION":13.21824866,"ECCENTRICITY":0.00018904,"INCLINATION":87.9246,"RA_OF_ASC_NODE":303.1805,"ARG_OF_PERICENTER":88.8746,"MEAN_ANOMALY":271.2605,"EPHEMERIS_TYPE":0,"CLASSIFICATION_TYPE":"U","NORAD_CAT_ID":56054,"ELEMENT_SET_NO":999,"REV_AT_EPOCH":11904,"BSTAR":-4.7784474e-5,"MEAN_MOTION_DOT":-7.0e-8,"MEAN_MOTION_DDOT":0},{"OBJECT_NAME":"ONEWEB-0553","OBJECT_ID":"2023-043K","EPOCH":"2025-08-24T13:34:45.067296","MEAN_MOTION":13.16593639,"ECCENTRICITY":0.00022248,"INCLINATION":87.9012,"RA_OF_ASC_NODE":287.8999,"ARG_OF_PERICENTER":104.6241,"MEAN_ANOMALY":255.5137,"EPHEMERIS_TYPE":0,"CLASSIFICATION_TYPE":"U","NORAD_CAT_ID":56055,"ELEMENT_SET_NO":999,"REV_AT_EPOCH":11994,"BSTAR":2.092525e-5,"MEAN_MOTION_DOT":2.1e-7,"MEAN_MOTION_DDOT":0},{"OBJECT_NAME":"ONEWEB-0554","OBJECT_ID":"2023-043L","EPOCH":"2025-08-24T13:16:29.377920","MEAN_MOTION":13.16592215,"ECCENTRICITY":0.00022568,"INCLINATION":87.9007,"RA_OF_ASC_NODE":287.9278,"ARG_OF_PERICENTER":93.8125,"MEAN_ANOMALY":266.3264,"EPHEMERIS_TYPE":0,"CLASSIFICATION_TYPE":"U","NORAD_CAT_ID":56056,"ELEMENT_SET_NO":999,"REV_AT_EPOCH":11992,"BSTAR":-0.00023993857,"MEAN_MOTION_DOT":-7.9e-7,"MEAN_MOTION_DDOT":0},{"OBJECT_NAME":"ONEWEB-0555","OBJECT_ID":"2023-043M","EPOCH":"2025-08-24T14:11:14.073504","MEAN_MOTION":13.16594565,"ECCENTRICITY":0.00022436,"INCLINATION":87.9013,"RA_OF_ASC_NODE":287.8893,"ARG_OF_PERICENTER":109.4642,"MEAN_ANOMALY":250.6732,"EPHEMERIS_TYPE":0,"CLASSIFICATION_TYPE":"U","NORAD_CAT_ID":56057,"ELEMENT_SET_NO":999,"REV_AT_EPOCH":11993,"BSTAR":0.00029013867,"MEAN_MOTION_DOT":1.24e-6,"MEAN_MOTION_DDOT":0},{"OBJECT_NAME":"ONEWEB-0557","OBJECT_ID":"2023-043N","EPOCH":"2025-08-24T14:31:44.050944","MEAN_MOTION":13.1659485,"ECCENTRICITY":0.00032825,"INCLINATION":87.9009,"RA_OF_ASC_NODE":287.9059,"ARG_OF_PERICENTER":101.3592,"MEAN_ANOMALY":258.7908,"EPHEMERIS_TYPE":0,"CLASSIFICATION_TYPE":"U","NORAD_CAT_ID":56058,"ELEMENT_SET_NO":999,"REV_AT_EPOCH":11993,"BSTAR":-5.2618999e-5,"MEAN_MOTION_DOT":-7.0e-8,"MEAN_MOTION_DDOT":0},{"OBJECT_NAME":"ONEWEB-0558","OBJECT_ID":"2023-043P","EPOCH":"2025-08-24T13:28:19.588512","MEAN_MOTION":13.21827794,"ECCENTRICITY":0.00015404,"INCLINATION":87.9246,"RA_OF_ASC_NODE":303.1774,"ARG_OF_PERICENTER":91.2006,"MEAN_ANOMALY":268.9305,"EPHEMERIS_TYPE":0,"CLASSIFICATION_TYPE":"U","NORAD_CAT_ID":56059,"ELEMENT_SET_NO":999,"REV_AT_EPOCH":11905,"BSTAR":3.0970509e-5,"MEAN_MOTION_DOT":2.6e-7,"MEAN_MOTION_DDOT":0},{"OBJECT_NAME":"ONEWEB-0559","OBJECT_ID":"2023-043Q","EPOCH":"2025-08-24T13:12:26.547264","MEAN_MOTION":13.21824945,"ECCENTRICITY":0.00018964,"INCLINATION":87.9246,"RA_OF_ASC_NODE":303.1719,"ARG_OF_PERICENTER":85.9788,"MEAN_ANOMALY":274.1563,"EPHEMERIS_TYPE":0,"CLASSIFICATION_TYPE":"U","NORAD_CAT_ID":56060,"ELEMENT_SET_NO":999,"REV_AT_EPOCH":11906,"BSTAR":0.00013719805,"MEAN_MOTION_DOT":7.0e-7,"MEAN_MOTION_DDOT":0},{"OBJECT_NAME":"ONEWEB-0566","OBJECT_ID":"2023-043R","EPOCH":"2025-08-24T14:52:21.486432","MEAN_MOTION":13.21825601,"ECCENTRICITY":0.00017503,"INCLINATION":87.9246,"RA_OF_ASC_NODE":303.1559,"ARG_OF_PERICENTER":90.1943,"MEAN_ANOMALY":269.9392,"EPHEMERIS_TYPE":0,"CLASSIFICATION_TYPE":"U","NORAD_CAT_ID":56061,"ELEMENT_SET_NO":999,"REV_AT_EPOCH":11905,"BSTAR":0.00011524485,"MEAN_MOTION_DOT":6.1e-7,"MEAN_MOTION_DDOT":0}]
