ONEWEB-0537             
1 56046U 23043A   25236.57847215  .00000087  00000+0  19362-3 0  9998
2 56046  87.9020 287.8850 0001960 102.2452 257.8898 13.16594244119938
ONEWEB-0538             
1 56047U 23043B   25236.57212997 -.00000034  00000+0 -12235-3 0  9998
2 56047  87.9010 287.9001 0001686  98.0249 262.1073 13.16593842119946
ONEWEB-0546             
1 56048U 23043C   25236.55946048 -.00000172  00000+0 -48431-3 0  9998
2 56048  87.9022 287.8826 0002206 114.2520 245.8842 13.16593936119931
ONEWEB-0547             
1 56049U 23043D   25236.59523843  .00001245  00000+0  29822-2 0  9999
2 56049  87.9242 303.1574 0001780  95.1727 264.9611 13.21836050119041
ONEWEB-0548             
1 56050U 23043E   25236.58481100  .00000029  00000+0  42115-4 0  9990
2 56050  87.9005 287.9041 0002440  90.4759 269.6652 13.16592016119935
ONEWEB-0549             
1 56051U 23043F   25236.58657673  .00000022  00000+0  22603-4 0  9994
2 56051  87.9245 303.1740 0001700  94.1890 265.9438 13.21825272119046
ONEWEB-0550             
1 56052U 23043G   25236.57395225 -.00000005  00000+0 -44292-4 0  9997
2 56052  87.9249 303.1705 0002151  98.1760 261.9618 13.21827309119042
ONEWEB-0551             
1 56053U 23043H   25236.60771839  .00000132  00000+0  31662-3 0  9996
2 56053  87.9070 318.4023 0001751  93.9204 266.2126 13.15548639117407
ONEWEB-0552             
1 56054U 23043J   25236.56765384 -.00000007  00000+0 -47784-4 0  9996
2 56054  87.9246 303.1805 0001890  88.8746 271.2605 13.21824866119046
ONEWEB-0553             
1 56055U 23043K   25236.56579939  .00000021  00000+0  20925-4 0  9998
2 56055  87.9012 287.8999 0002224 104.6241 255.5137 13.16593639119948
ONEWEB-0554             
1 56056U 23043L   25236.55311780 -.00000079  00000+0 -23994-3 0  9999
2 56056  87.9007 287.9278 0002256  93.8125 266.3264 13.16592215119927
ONEWEB-0555             
1 56057U 23043M   25236.59113511  .00000124  00000+0  29014-3 0  9994
2 56057  87.9013 287.8893 0002243 109.4642 250.6732 13.16594565119938
ONEWEB-0557             
1 56058U 23043N   25236.60537096 -.00000007  00000+0 -52619-4 0  9995
2 56058  87.9009 287.9059 0003282 101.3592 258.7908 13.16594850119939
ONEWEB-0558             
1 56059U 23043P   25236.56133783  .00000026  00000+0  30971-4 0  9992
2 56059  87.9246 303.1774 0001540  91.2006 268.9305 13.21827794119059
ONEWEB-0559             
1 56060U 23043Q   25236.55030726  .00000070  00000+0  13720-3 0  9997
2 56060  87.9246 303.1719 0001896  85.9788 274.1563 13.21824945119062
ONEWEB-0566             
1 56061U 23043R   25236.61969313  .00000061  00000+0  11524-3 0  9998
2 56061  87.9246 303.1559 0001750  90.1943 269.9392 13.21825601119056
